IDEFIX & ARIANE 42P R/B 
1 27422U 02021B   26063.39169823  .00000431  00000+0  18028-3 0  9999
2 27422  98.5866   2.0614 0011273 198.2764 161.8015 14.31022003243260
AQUA                    
1 27424U 02022A   26063.49231437  .00001580  00000+0  32522-3 0  9995
2 27424  98.4166  30.7630 0000637  60.6305  49.3779 14.61962855267977
CZ-4B R/B               
1 27432U 02024C   26063.12431707  .00000065  00000+0  56260-4 0  9991
2 27432  98.8850 116.5588 0050725  39.8521 347.0460 14.14546424228459
MIDORI II (ADEOS-II)    
1 27597U 02056A   26063.48333721  .00000458  00000+0  19793-3 0  9999
2 27597  98.7761  21.9252 0001781  50.0959 310.0379 14.29280605209557
H-2A R/B                
1 27601U 02056E   26063.48308938  .00000403  00000+0  15550-3 0  9994
2 27601  98.3194  24.0472 0070178 176.1427 295.4587 14.33756996213360
CZ-4B R/B               
1 28059U 03049C   26063.50099525  .00000621  00000+0  15405-3 0  9998
2 28059  98.6874  58.2023 0047075 247.0745 112.5479 14.55014781185841
CZ-2C R/B               
1 28222U 04012C   26063.17120258  .00071201  00000+0  75524-3 0  9992
2 28222  97.7244 127.9435 0013212 331.6844  28.3694 15.63762571203415
SL-16 R/B               
1 28353U 04021B   26063.50713660 -.00000154  00000+0 -55300-4 0  9991
2 28353  70.9991 243.3689 0003758  19.6966 340.4301 14.14599523122107
CZ-4B R/B               
1 28415U 04035C   26063.08471853  .00011746  00000+0  41410-3 0  9996
2 28415  97.3503  97.3943 0031572 351.8851   8.1874 15.28943125179053
CZ-2C R/B               
1 28480U 04046B   26063.36688739  .00000173  00000+0  79149-4 0  9997
2 28480  98.1987 338.6819 0139558 170.1424 190.2547 14.26990151107749
ARIANE 5 R/B            
1 28499U 04049H   26063.44529625  .00001197  00000+0  13803-3 0  9998
2 28499  98.2617 231.7063 0084316   8.9273 351.3417 14.85255228145017
CZ-2D R/B               
1 28738U 05024B   26062.99992175  .00056390  00000+0  70720-3 0  9997
2 28738  97.3594  77.9392 0006724  61.1543 299.0388 15.59546967138898
